STARLINK-34087
1 64023U 25102B   26092.88334235 -.00250171  00000+0 -22037-1 0  9992
2 64023  70.0028  53.5550 0000648   1.2925 358.8236 14.97770912 49582
